[{"OBJECT_NAME":"GLOBAL-18","OBJECT_ID":"2022-034B","EPOCH":"2026-03-09T23:26:05.160768","MEAN_MOTION":15.42149859,"ECCENTRICITY":0.00026358,"INCLINATION":52.9845,"RA_OF_ASC_NODE":9.3468,"ARG_OF_PERICENTER":330.2135,"MEAN_ANOMALY":29.8718,"EPHEMERIS_TYPE":0,"CLASSIFICATION_TYPE":"U","NORAD_CAT_ID":52196,"ELEMENT_SET_NO":999,"REV_AT_EPOCH":22163,"BSTAR":0.00062119712,"MEAN_MOTION_DOT":0.0002671,"MEAN_MOTION_DDOT":0},{"OBJECT_NAME":"STARLINK-5851","OBJECT_ID":"2023-037AK","EPOCH":"2026-03-09T22:00:01.999584","MEAN_MOTION":15.42862992,"ECCENTRICITY":0.00037818,"INCLINATION":70.0014,"RA_OF_ASC_NODE":280.2352,"ARG_OF_PERICENTER":267.0904,"MEAN_ANOMALY":171.4079,"EPHEMERIS_TYPE":0,"CLASSIFICATION_TYPE":"U","NORAD_CAT_ID":55947,"ELEMENT_SET_NO":999,"REV_AT_EPOCH":574,"BSTAR":0.028609272,"MEAN_MOTION_DOT":0.01383669,"MEAN_MOTION_DDOT":0}]
